{
  "type": "FeatureCollection",
  "features": [
    {
      "type": "Feature",
      "properties": {
        "norad_id": 31566,
        "name": "FENGYUN 1C DEB",
        "group": "fengyun-1c-debris",
        "lat": -13.517037435415258,
        "lon": -141.05651805667236,
        "alt_km": 788.2992683094171,
        "timestamp": "2025-12-08T08:59:01.048938+00:00",
        "meta_object_name": "FENGYUN 1C DEB",
        "meta_object_id": "1999-025BZH",
        "meta_epoch": "2025-12-07T09:19:11.236800",
        "meta_mean_motion": 14.3729949,
        "meta_eccentricity": 0.00230201,
        "meta_inclination": 98.9491,
        "meta_ra_of_asc_node": 40.0891,
        "meta_arg_of_pericenter": 12.7294,
        "meta_mean_anomaly": 121.921,
        "meta_ephemeris_type": 0,
        "meta_classification_type": "U",
        "meta_norad_cat_id": 31566,
        "meta_element_set_no": 999,
        "meta_rev_at_epoch": 96314,
        "meta_bstar": 0.0032211215,
        "meta_mean_motion_dot": 9.601e-05,
        "meta_mean_motion_ddot": 0,
        "tle_line1": "1 31566U 99025BZH 25341.38832450  .00009601  00000+0  32211-2 0  9990",
        "tle_line2": "2 31566  98.9491  40.0891 0023020  12.7294 121.9210 14.37299490963144"
      },
      "geometry": {
        "type": "Point",
        "coordinates": [
          -141.05651805667236,
          -13.517037435415258
        ]
      }
    },
    {
      "type": "Feature",
      "properties": {
        "norad_id": 31567,
        "name": "FENGYUN 1C DEB",
        "group": "fengyun-1c-debris",
        "lat": 74.39050653897513,
        "lon": 79.09204637290185,
        "alt_km": 1016.0212332896435,
        "timestamp": "2025-12-08T08:59:01.048948+00:00",
        "meta_object_name": "FENGYUN 1C DEB",
        "meta_object_id": "1999-025BZJ",
        "meta_epoch": "2025-12-07T13:32:37.652352",
        "meta_mean_motion": 13.92814693,
        "meta_eccentricity": 0.01873078,
        "meta_inclination": 102.3172,
        "meta_ra_of_asc_node": 206.5713,
        "meta_arg_of_pericenter": 321.006,
        "meta_mean_anomaly": 37.7706,
        "meta_ephemeris_type": 0,
        "meta_classification_type": "U",
        "meta_norad_cat_id": 31567,
        "meta_element_set_no": 999,
        "meta_rev_at_epoch": 67337,
        "meta_bstar": 0.0051947994,
        "meta_mean_motion_dot": 7.71e-05,
        "meta_mean_motion_ddot": 0,
        "tle_line1": "1 31567U 99025BZJ 25341.56432468  .00007710  00000+0  51948-2 0  9993",
        "tle_line2": "2 31567 102.3172 206.5713 0187307 321.0060  37.7706 13.92814693673374"
      },
      "geometry": {
        "type": "Point",
        "coordinates": [
          79.09204637290185,
          74.39050653897513
        ]
      }
    },
    {
      "type": "Feature",
      "properties": {
        "norad_id": 31568,
        "name": "FENGYUN 1C DEB",
        "group": "fengyun-1c-debris",
        "lat": 67.60219174560102,
        "lon": 74.29308590302908,
        "alt_km": 794.5569908244561,
        "timestamp": "2025-12-08T08:59:01.048970+00:00",
        "meta_object_name": "FENGYUN 1C DEB",
        "meta_object_id": "1999-025BZK",
        "meta_epoch": "2025-11-27T22:38:02.918112",
        "meta_mean_motion": 14.03182798,
        "meta_eccentricity": 0.0121792,
        "meta_inclination": 102.0468,
        "meta_ra_of_asc_node": 209.318,
        "meta_arg_of_pericenter": 158.3893,
        "meta_mean_anomaly": 202.2464,
        "meta_ephemeris_type": 0,
        "meta_classification_type": "U",
        "meta_norad_cat_id": 31568,
        "meta_element_set_no": 999,
        "meta_rev_at_epoch": 94372,
        "meta_bstar": 0.0028015,
        "meta_mean_motion_dot": 4.595e-05,
        "meta_mean_motion_ddot": 0,
        "tle_line1": "1 31568U 99025BZK 25331.94308933  .00004595  00000+0  28015-2 0  9991",
        "tle_line2": "2 31568 102.0468 209.3180 0121792 158.3893 202.2464 14.03182798943726"
      },
      "geometry": {
        "type": "Point",
        "coordinates": [
          74.29308590302908,
          67.60219174560102
        ]
      }
    },
    {
      "type": "Feature",
      "properties": {
        "norad_id": 31569,
        "name": "FENGYUN 1C DEB",
        "group": "fengyun-1c-debris",
        "lat": 53.34132742188616,
        "lon": 120.48550598260641,
        "alt_km": 804.9609281801213,
        "timestamp": "2025-12-08T08:59:01.048982+00:00",
        "meta_object_name": "FENGYUN 1C DEB",
        "meta_object_id": "1999-025BZL",
        "meta_epoch": "2025-11-30T05:24:01.468800",
        "meta_mean_motion": 13.95405103,
        "meta_eccentricity": 0.01728622,
        "meta_inclination": 102.6164,
        "meta_ra_of_asc_node": 126.885,
        "meta_arg_of_pericenter": 36.2337,
        "meta_mean_anomaly": 138.7821,
        "meta_ephemeris_type": 0,
        "meta_classification_type": "U",
        "meta_norad_cat_id": 31569,
        "meta_element_set_no": 999,
        "meta_rev_at_epoch": 93504,
        "meta_bstar": 0.0023090613,
        "meta_mean_motion_dot": 3.477e-05,
        "meta_mean_motion_ddot": 0,
        "tle_line1": "1 31569U 99025BZL 25334.22501700  .00003477  00000+0  23091-2 0  9990",
        "tle_line2": "2 31569 102.6164 126.8850 0172862  36.2337 138.7821 13.95405103935048"
      },
      "geometry": {
        "type": "Point",
        "coordinates": [
          120.48550598260641,
          53.34132742188616
        ]
      }
    },
    {
      "type": "Feature",
      "properties": {
        "norad_id": 31570,
        "name": "FENGYUN 1C DEB",
        "group": "fengyun-1c-debris",
        "lat": -7.999054496111595,
        "lon": -162.3608481343572,
        "alt_km": 734.6178693936054,
        "timestamp": "2025-12-08T08:59:01.048993+00:00",
        "meta_object_name": "FENGYUN 1C DEB",
        "meta_object_id": "1999-025BZM",
        "meta_epoch": "2025-11-25T06:40:18.493248",
        "meta_mean_motion": 14.24909801,
        "meta_eccentricity": 0.01526257,
        "meta_inclination": 102.5663,
        "meta_ra_of_asc_node": 0.7562,
        "meta_arg_of_pericenter": 266.5584,
        "meta_mean_anomaly": 91.8112,
        "meta_ephemeris_type": 0,
        "meta_classification_type": "U",
        "meta_norad_cat_id": 31570,
        "meta_element_set_no": 999,
        "meta_rev_at_epoch": 63118,
        "meta_bstar": 0.0023713757,
        "meta_mean_motion_dot": 6.183e-05,
        "meta_mean_motion_ddot": 0,
        "tle_line1": "1 31570U 99025BZM 25329.27799182  .00006183  00000+0  23714-2 0  9993",
        "tle_line2": "2 31570 102.5663   0.7562 0152625 266.5584  91.8112 14.24909801631187"
      },
      "geometry": {
        "type": "Point",
        "coordinates": [
          -162.3608481343572,
          -7.999054496111595
        ]
      }
    },
    {
      "type": "Feature",
      "properties": {
        "norad_id": 31608,
        "name": "FENGYUN 1C DEB",
        "group": "fengyun-1c-debris",
        "lat": 55.17250889887584,
        "lon": 88.05101816571008,
        "alt_km": 503.72083562203443,
        "timestamp": "2025-12-08T08:59:01.049003+00:00",
        "meta_object_name": "FENGYUN 1C DEB",
        "meta_object_id": "1999-025BZN",
        "meta_epoch": "2025-12-04T14:13:29.603136",
        "meta_mean_motion": 14.85679772,
        "meta_eccentricity": 0.0146671,
        "meta_inclination": 98.3801,
        "meta_ra_of_asc_node": 96.302,
        "meta_arg_of_pericenter": 63.9077,
        "meta_mean_anomaly": 297.7147,
        "meta_ephemeris_type": 0,
        "meta_classification_type": "U",
        "meta_norad_cat_id": 31608,
        "meta_element_set_no": 999,
        "meta_rev_at_epoch": 98512,
        "meta_bstar": 0.0015593,
        "meta_mean_motion_dot": 0.00016394,
        "meta_mean_motion_ddot": 0,
        "tle_line1": "1 31608U 99025BZN 25338.59270374  .00016394  00000+0  15593-2 0  9998",
        "tle_line2": "2 31608  98.3801  96.3020 0146671  63.9077 297.7147 14.85679772985124"
      },
      "geometry": {
        "type": "Point",
        "coordinates": [
          88.05101816571008,
          55.17250889887584
        ]
      }
    },
    {
      "type": "Feature",
      "properties": {
        "norad_id": 31609,
        "name": "FENGYUN 1C DEB",
        "group": "fengyun-1c-debris",
        "lat": -80.23597246824451,
        "lon": 120.11017744436244,
        "alt_km": 818.9616330766439,
        "timestamp": "2025-12-08T08:59:01.049014+00:00",
        "meta_object_name": "FENGYUN 1C DEB",
        "meta_object_id": "1999-025BZP",
        "meta_epoch": "2025-12-07T01:19:25.751424",
        "meta_mean_motion": 14.156767,
        "meta_eccentricity": 0.0094908,
        "meta_inclination": 99.216,
        "meta_ra_of_asc_node": 9.388,
        "meta_arg_of_pericenter": 336.5905,
        "meta_mean_anomaly": 51.8314,
        "meta_ephemeris_type": 0,
        "meta_classification_type": "U",
        "meta_norad_cat_id": 31609,
        "meta_element_set_no": 999,
        "meta_rev_at_epoch": 66004,
        "meta_bstar": 0.0037519883,
        "meta_mean_motion_dot": 7.643e-05,
        "meta_mean_motion_ddot": 0,
        "tle_line1": "1 31609U 99025BZP 25341.05515916  .00007643  00000+0  37520-2 0  9999",
        "tle_line2": "2 31609  99.2160   9.3880 0094908 336.5905  51.8314 14.15676700660042"
      },
      "geometry": {
        "type": "Point",
        "coordinates": [
          120.11017744436244,
          -80.23597246824451
        ]
      }
    }
  ]
}